ORBITIQ-DEMO-00
1 90000U 24001A   24001.50000000  .00010000  00000-0  10000-3 0  1000
2 90000  53.0542  99.0106 0001200   9.0039  90.0000 15.07394268    10
ORBITIQ-DEMO-01
1 90001U 24001A   24001.50000000  .00010000  00000-0  10000-3 0  1001
2 90001  53.0542 243.6118 0001200 265.1296  90.0000 15.03232107    10
ORBITIQ-DEMO-02
1 90002U 24001A   24001.50000000  .00010000  00000-0  10000-3 0  1002
2 90002  53.0542 151.8919 0001200  31.2980  90.0000 15.09921796    10
ORBITIQ-DEMO-03
1 90003U 24001A   24001.50000000  .00010000  00000-0  10000-3 0  1003
2 90003  53.0542 181.9279 0001200  78.7097  90.0000 15.01297972    10
ORBITIQ-DEMO-04
1 90004U 24001A   24001.50000000  .00010000  00000-0  10000-3 0  1004
2 90004  53.0542 233.9584 0001200  71.5816  90.0000 15.01265360    10
ORBITIQ-DEMO-05
1 90005U 24001A   24001.50000000  .00010000  00000-0  10000-3 0  1005
2 90005  53.0542 212.1356 0001200  79.3586  90.0000 15.06449415    10
ORBITIQ-DEMO-06
1 90006U 24001A   24001.50000000  .00010000  00000-0  10000-3 0  1006
2 90006  53.0542 290.0949 0001200   2.3396  90.0000 15.09094305    10
ORBITIQ-DEMO-07
1 90007U 24001A   24001.50000000  .00010000  00000-0  10000-3 0  1007
2 90007  53.0542  55.9726 0001200 122.4902  90.0000 15.07981394    10
ORBITIQ-DEMO-08
1 90008U 24001A   24001.50000000  .00010000  00000-0  10000-3 0  1008
2 90008  53.0542  33.3885 0001200 121.1740  90.0000 15.10572131    10
ORBITIQ-DEMO-09
1 90009U 24001A   24001.50000000  .00010000  00000-0  10000-3 0  1009
2 90009  53.0542 217.3414 0001200 305.0980  90.0000 15.01967164    10
ORBITIQ-DEMO-10
1 90010U 24001A   24001.50000000  .00010000  00000-0  10000-3 0  1000
2 90010  53.0542 193.0421 0001200 262.7034  90.0000 15.09071283    10
ORBITIQ-DEMO-11
1 90011U 24001A   24001.50000000  .00010000  00000-0  10000-3 0  1001
2 90011  53.0542 198.7346 0001200 136.2724  90.0000 15.10731158    10
ORBITIQ-DEMO-12
1 90012U 24001A   24001.50000000  .00010000  00000-0  10000-3 0  1002
2 90012  53.0542 310.2145 0001200 222.6671  90.0000 15.09294047    10
ORBITIQ-DEMO-13
1 90013U 24001A   24001.50000000  .00010000  00000-0  10000-3 0  1003
2 90013  53.0542  16.4968 0001200 253.6459  90.0000 15.06773521    10
ORBITIQ-DEMO-14
1 90014U 24001A   24001.50000000  .00010000  00000-0  10000-3 0  1004
2 90014  53.0542  28.7251 0001200 104.1797  90.0000 15.03278983    10
ORBITIQ-DEMO-15
1 90015U 24001A   24001.50000000  .00010000  00000-0  10000-3 0  1005
2 90015  53.0542 100.0705 0001200  36.3605  90.0000 15.03327909    10
ORBITIQ-DEMO-16
1 90016U 24001A   24001.50000000  .00010000  00000-0  10000-3 0  1006
2 90016  53.0542 133.2651 0001200 131.3396  90.0000 15.07356844    10
ORBITIQ-DEMO-17
1 90017U 24001A   24001.50000000  .00010000  00000-0  10000-3 0  1007
2 90017  53.0542 337.1957 0001200  96.1120  90.0000 15.03095070    10
ORBITIQ-DEMO-18
1 90018U 24001A   24001.50000000  .00010000  00000-0  10000-3 0  1008
2 90018  53.0542  61.6099 0001200 219.2872  90.0000 15.07480354    10
ORBITIQ-DEMO-19
1 90019U 24001A   24001.50000000  .00010000  00000-0  10000-3 0  1009
2 90019  53.0542 136.6040 0001200  58.8249  90.0000 15.08291268    10
ORBITIQ-DEMO-20
1 90020U 24001A   24001.50000000  .00010000  00000-0  10000-3 0  1000
2 90020  53.0542 200.5019 0001200 230.3999  90.0000 15.10895234    10
ORBITIQ-DEMO-21
1 90021U 24001A   24001.50000000  .00010000  00000-0  10000-3 0  1001
2 90021  53.0542 279.3600 0001200 303.4267  90.0000 15.07846143    10
ORBITIQ-DEMO-22
1 90022U 24001A   24001.50000000  .00010000  00000-0  10000-3 0  1002
2 90022  53.0542 113.5631 0001200  11.5561  90.0000 15.03290481    10
ORBITIQ-DEMO-23
1 90023U 24001A   24001.50000000  .00010000  00000-0  10000-3 0  1003
2 90023  53.0542 339.4475 0001200  75.9538  90.0000 15.03677409    10
